{"type": "FeatureCollection", "features": [ {"type": "Feature", "properties": {"norad_id": 66645, "name": "SHENZHOU-22", "group": "last-30-days", "lat": 16.035612225196893, "lon": -50.52291765040929, "alt_km": 389.4020545629837, "timestamp": "2025-12-26T22:28:04.496451+00:00", "meta": {"OBJECT_NAME": "SHENZHOU-22", "OBJECT_ID": "2025-272A", "EPOCH": "2025-12-26T05:27:30.670848", "MEAN_MOTION": 15.59708409, "ECCENTRICITY": 0.00085179, "INCLINATION": 41.468, "RA_OF_ASC_NODE": 294.7909, "ARG_OF_PERICENTER": 149.5046, "MEAN_ANOMALY": 210.6289, "EPHEMERIS_TYPE": 0, "CLASSIFICATION_TYPE": "U", "NORAD_CAT_ID": 66645, "ELEMENT_SET_NO": 999, "REV_AT_EPOCH": 26598, "BSTAR": 0.00023601706, "MEAN_MOTION_DOT": 0.00019151, "MEAN_MOTION_DDOT": 0}, "tle": {"line1": "1 66645U 25272A   25360.22743832  .00019151  00000+0  23602-3 0  9994", "line2": "2 66645  41.4680 294.7909 0008517 149.5046 210.6289 15.59708409265988"}}, "geometry": {"type": "Point", "coordinates": [-50.52291765040929, 16.035612225196893]}}, {"type": "Feature", "properties": {"norad_id": 66647, "name": "COSMOS 2597 (RODNIK-S 22)", "group": "last-30-days", "lat": -10.56595352879704, "lon": 99.04236751363109, "alt_km": 1499.497910597911, "timestamp": "2025-12-26T22:28:04.496462+00:00", "meta": {"OBJECT_NAME": "COSMOS 2597 (RODNIK-S 22)", "OBJECT_ID": "2025-273A", "EPOCH": "2025-12-26T17:34:39.061056", "MEAN_MOTION": 12.41952322, "ECCENTRICITY": 0.0007601, "INCLINATION": 82.4993, "RA_OF_ASC_NODE": 277.7608, "ARG_OF_PERICENTER": 252.9766, "MEAN_ANOMALY": 107.048, "EPHEMERIS_TYPE": 0, "CLASSIFICATION_TYPE": "U", "NORAD_CAT_ID": 66647, "ELEMENT_SET_NO": 999, "REV_AT_EPOCH": 387, "BSTAR": 0.00012902, "MEAN_MOTION_DOT": 2.7e-07, "MEAN_MOTION_DDOT": 0}, "tle": {"line1": "1 66647U 25273A   25360.73239654  .00000027  00000+0  12902-3 0  9998", "line2": "2 66647  82.4993 277.7608 0007601 252.9766 107.0480 12.41952322  3873"}}, "geometry": {"type": "Point", "coordinates": [99.04236751363109, -10.56595352879704]}}, {"type": "Feature", "properties": {"norad_id": 66648, "name": "COSMOS 2598 (RODNIK-S 23)", "group": "last-30-days", "lat": -67.00339310007952, "lon": -100.45527338590057, "alt_km": 1500.0029928976392, "timestamp": "2025-12-26T22:28:04.496476+00:00", "meta": {"OBJECT_NAME": "COSMOS 2598 (RODNIK-S 23)", "OBJECT_ID": "2025-273B", "EPOCH": "2025-12-26T18:58:17.994720", "MEAN_MOTION": 12.43233707, "ECCENTRICITY": 0.0008248, "INCLINATION": 82.5032, "RA_OF_ASC_NODE": 277.7088, "ARG_OF_PERICENTER": 203.3899, "MEAN_ANOMALY": 156.6807, "EPHEMERIS_TYPE": 0, "CLASSIFICATION_TYPE": "U", "NORAD_CAT_ID": 66648, "ELEMENT_SET_NO": 999, "REV_AT_EPOCH": 388, "BSTAR": 0.00014733, "MEAN_MOTION_DOT": 3e-07, "MEAN_MOTION_DDOT": 0}, "tle": {"line1": "1 66648U 25273B   25360.79048605  .00000030  00000+0  14733-3 0  9997", "line2": "2 66648  82.5032 277.7088 0008248 203.3899 156.6807 12.43233707  3881"}}, "geometry": {"type": "Point", "coordinates": [-100.45527338590057, -67.00339310007952]}}, {"type": "Feature", "properties": {"norad_id": 66649, "name": "COSMOS 2599 (RODNIK-S 24)", "group": "last-30-days", "lat": 48.33205347255961, "lon": 89.16611425767766, "alt_km": 1498.9374151370048, "timestamp": "2025-12-26T22:28:04.496487+00:00", "meta": {"OBJECT_NAME": "COSMOS 2599 (RODNIK-S 24)", "OBJECT_ID": "2025-273C", "EPOCH": "2025-12-26T17:53:39.499584", "MEAN_MOTION": 12.41152402, "ECCENTRICITY": 0.0006348, "INCLINATION": 82.505, "RA_OF_ASC_NODE": 277.7899, "ARG_OF_PERICENTER": 240.9092, "MEAN_ANOMALY": 119.1352, "EPHEMERIS_TYPE": 0, "CLASSIFICATION_TYPE": "U", "NORAD_CAT_ID": 66649, "ELEMENT_SET_NO": 999, "REV_AT_EPOCH": 387, "BSTAR": 0.0002443, "MEAN_MOTION_DOT": 4.3e-07, "MEAN_MOTION_DDOT": 0}, "tle": {"line1": "1 66649U 25273C   25360.74559606  .00000043  00000+0  24430-3 0  9990", "line2": "2 66649  82.5050 277.7899 0006348 240.9092 119.1352 12.41152402  3871"}}, "geometry": {"type": "Point", "coordinates": [89.16611425767766, 48.33205347255961]}}, {"type": "Feature", "properties": {"norad_id": 66650, "name": "BEE-1000", "group": "last-30-days", "lat": 19.261243452139727, "lon": 110.588511614695, "alt_km": 586.7618061835274, "timestamp": "2025-12-26T22:28:04.496498+00:00", "meta": {"OBJECT_NAME": "BEE-1000", "OBJECT_ID": "2025-274A", "EPOCH": "2025-12-26T16:55:14.687040", "MEAN_MOTION": 14.91708342, "ECCENTRICITY": 0.0011225, "INCLINATION": 97.7406, "RA_OF_ASC_NODE": 287.6373, "ARG_OF_PERICENTER": 200.3301, "MEAN_ANOMALY": 159.7472, "EPHEMERIS_TYPE": 0, "CLASSIFICATION_TYPE": "U", "NORAD_CAT_ID": 66650, "ELEMENT_SET_NO": 999, "REV_AT_EPOCH": 448, "BSTAR": 0.00017603, "MEAN_MOTION_DOT": 1.717e-05, "MEAN_MOTION_DDOT": 0}, "tle": {"line1": "1 66650U 25274A   25360.70503110  .00001717  00000+0  17603-3 0  9991", "line2": "2 66650  97.7406 287.6373 0011225 200.3301 159.7472 14.91708342  4484"}}, "geometry": {"type": "Point", "coordinates": [110.588511614695, 19.261243452139727]}}, {"type": "Feature", "properties": {"norad_id": 66651, "name": "2025-274B", "group": "last-30-days", "lat": 6.062573409313059, "lon": 108.69607580578045, "alt_km": 586.9437269927648, "timestamp": "2025-12-26T22:28:04.496508+00:00", "meta": {"OBJECT_NAME": "2025-274B", "OBJECT_ID": "2025-274B", "EPOCH": "2025-12-26T18:28:18.242112", "MEAN_MOTION": 14.91901292, "ECCENTRICITY": 0.0011426, "INCLINATION": 97.7399, "RA_OF_ASC_NODE": 287.7049, "ARG_OF_PERICENTER": 198.3459, "MEAN_ANOMALY": 161.7349, "EPHEMERIS_TYPE": 0, "CLASSIFICATION_TYPE": "U", "NORAD_CAT_ID": 66651, "ELEMENT_SET_NO": 999, "REV_AT_EPOCH": 449, "BSTAR": 0.00039041, "MEAN_MOTION_DOT": 3.897e-05, "MEAN_MOTION_DDOT": 0}, "tle": {"line1": "1 66651U 25274B   25360.76965558  .00003897  00000+0  39041-3 0  9997", "line2": "2 66651  97.7399 287.7049 0011426 198.3459 161.7349 14.91901292  4496"}}, "geometry": {"type": "Point", "coordinates": [108.69607580578045, 6.062573409313059]}}, {"type": "Feature", "properties": {"norad_id": 66652, "name": "2025-274C", "group": "last-30-days", "lat": -6.284508071005369, "lon": 107.01711816497928, "alt_km": 588.3225736783797, "timestamp": "2025-12-26T22:28:04.496518+00:00", "meta": {"OBJECT_NAME": "2025-274C", "OBJECT_ID": "2025-274C", "EPOCH": "2025-12-26T18:24:58.553568", "MEAN_MOTION": 14.91984941, "ECCENTRICITY": 0.001094, "INCLINATION": 97.7406, "RA_OF_ASC_NODE": 287.7096, "ARG_OF_PERICENTER": 205.0107, "MEAN_ANOMALY": 155.0583, "EPHEMERIS_TYPE": 0, "CLASSIFICATION_TYPE": "U", "NORAD_CAT_ID": 66652, "ELEMENT_SET_NO": 999, "REV_AT_EPOCH": 449, "BSTAR": 0.00032448, "MEAN_MOTION_DOT": 3.235e-05, "MEAN_MOTION_DDOT": 0}, "tle": {"line1": "1 66652U 25274C   25360.76734437  .00003235  00000+0  32448-3 0  9998", "line2": "2 66652  97.7406 287.7096 0010940 205.0107 155.0583 14.91984941  4492"}}, "geometry": {"type": "Point", "coordinates": [107.01711816497928, -6.284508071005369]}}, {"type": "Feature", "properties": {"norad_id": 66653, "name": "2025-274D", "group": "last-30-days", "lat": -6.583535445807899, "lon": 106.97540358261455, "alt_km": 587.5942596504228, "timestamp": "2025-12-26T22:28:04.496529+00:00", "meta": {"OBJECT_NAME": "2025-274D", "OBJECT_ID": "2025-274D", "EPOCH": "2025-12-26T18:24:53.684064", "MEAN_MOTION": 14.91972672, "ECCENTRICITY": 0.0011933, "INCLINATION": 97.7403, "RA_OF_ASC_NODE": 287.709, "ARG_OF_PERICENTER": 201.7877, "MEAN_ANOMALY": 158.2836, "EPHEMERIS_TYPE": 0, "CLASSIFICATION_TYPE": "U", "NORAD_CAT_ID": 66653, "ELEMENT_SET_NO": 999, "REV_AT_EPOCH": 449, "BSTAR": 0.00025148, "MEAN_MOTION_DOT": 2.494e-05, "MEAN_MOTION_DDOT": 0}, "tle": {"line1": "1 66653U 25274D   25360.76728801  .00002494  00000+0  25148-3 0  9992", "line2": "2 66653  97.7403 287.7090 0011933 201.7877 158.2836 14.91972672  4498"}}, "geometry": {"type": "Point", "coordinates": [106.97540358261455, -6.583535445807899]}}, {"type": "Feature", "properties": {"norad_id": 66654, "name": "JACK E", "group": "last-30-days", "lat": -25.367698118447137, "lon": 104.18637062969185, "alt_km": 588.1846912561023, "timestamp": "2025-12-26T22:28:04.496539+00:00", "meta": {"OBJECT_NAME": "JACK E", "OBJECT_ID": "2025-274E", "EPOCH": "2025-12-26T18:19:50.586816", "MEAN_MOTION": 14.92159432, "ECCENTRICITY": 0.0012472, "INCLINATION": 97.7405, "RA_OF_ASC_NODE": 287.7147, "ARG_OF_PERICENTER": 203.4868, "MEAN_ANOMALY": 156.5783, "EPHEMERIS_TYPE": 0, "CLASSIFICATION_TYPE": "U", "NORAD_CAT_ID": 66654, "ELEMENT_SET_NO": 999, "REV_AT_EPOCH": 449, "BSTAR": 0.00031145, "MEAN_MOTION_DOT": 3.118e-05, "MEAN_MOTION_DDOT": 0}, "tle": {"line1": "1 66654U 25274E   25360.76377994  .00003118  00000+0  31145-3 0  9994", "line2": "2 66654  97.7405 287.7147 0012472 203.4868 156.5783 14.92159432  4496"}}, "geometry": {"type": "Point", "coordinates": [104.18637062969185, -25.367698118447137]}}, {"type": "Feature", "properties": {"norad_id": 66655, "name": "2025-274F", "group": "last-30-days", "lat": 19.013896725599054, "lon": 110.53761862517284, "alt_km": 597.4030597374203, "timestamp": "2025-12-26T22:28:04.496553+00:00", "meta": {"OBJECT_NAME": "2025-274F", "OBJECT_ID": "2025-274F", "EPOCH": "2025-12-26T16:55:05.520000", "MEAN_MOTION": 14.9120375, "ECCENTRICITY": 0.0004255, "INCLINATION": 97.7333, "RA_OF_ASC_NODE": 287.627, "ARG_OF_PERICENTER": 335.7249, "MEAN_ANOMALY": 24.3768, "EPHEMERIS_TYPE": 0, "CLASSIFICATION_TYPE": "U", "NORAD_CAT_ID": 66655, "ELEMENT_SET_NO": 999, "REV_AT_EPOCH": 448, "BSTAR": 3.6115e-06, "MEAN_MOTION_DOT": -1.9e-07, "MEAN_MOTION_DDOT": 0}, "tle": {"line1": "1 66655U 25274F   25360.70492500 -.00000019  00000+0  36115-5 0  9992", "line2": "2 66655  97.7333 287.6270 0004255 335.7249  24.3768 14.91203750  4481"}}, "geometry": {"type": "Point", "coordinates": [110.53761862517284, 19.013896725599054]}}]}